start=new Date('2022-12-29T00:00:00.000Z').valueOf();
sats=[{"RCS_SIZE":"LARGE","OBJECT_NAME":"STARLINK-2055","OBJECT_TYPE":"PAYLOAD","PERIOD":"95.592","NORAD_CAT_ID":"47358","OBJECT_ID":"2021-005K","ELEMENT_SET_NO":"999","ECCENTRICITY":"0.00014590","LAUNCH_DATE":"2021-01-20","SEMIMAJOR_AXIS":"6925.344","FILE":"3725038","REF_FRAME":"TEME","MEAN_MOTION":"15.06401366","MEAN_ELEMENT_THEORY":"SGP4","DECAY_DATE":null,"REV_AT_EPOCH":"10757","INCLINATION":"53.0512","MEAN_MOTION_DDOT":"0.0000000000000","CLASSIFICATION_TYPE":"U","BSTAR":"-0.00016128000000","ARG_OF_PERICENTER":"80.7929","RA_OF_ASC_NODE":"230.2747","MEAN_MOTION_DOT":"-0.00002683","TIME_SYSTEM":"UTC","TLE_LINE2":"2 47358  53.0512 230.2747 0001459  80.7929 279.3225 15.06401366107576","TLE_LINE1":"1 47358U 21005K   22362.73699824 -.00002683  00000-0 -16128-3 0  9990","EPOCH":"2022-12-28T17:41:16.647936","PERIAPSIS":"546.199","GP_ID":"221693635","SITE":"AFETR","COUNTRY_CODE":"US","EPHEMERIS_TYPE":"0","CENTER_NAME":"EARTH","MEAN_ANOMALY":"279.3225","APOAPSIS":"548.220"},{"OBJECT_ID":"2021-005L","ELEMENT_SET_NO":"999","ECCENTRICITY":"0.00006550","SEMIMAJOR_AXIS":"6925.382","LAUNCH_DATE":"2021-01-20","FILE":"3725038","REF_FRAME":"TEME","MEAN_MOTION":"15.06388978","MEAN_ELEMENT_THEORY":"SGP4","DECAY_DATE":null,"REV_AT_EPOCH":"10723","INCLINATION":"53.0567","MEAN_MOTION_DDOT":"0.0000000000000","RCS_SIZE":"LARGE","OBJECT_NAME":"STARLINK-2069","OBJECT_TYPE":"PAYLOAD","PERIOD":"95.593","NORAD_CAT_ID":"47359","TLE_LINE1":"1 47359U 21005L   22362.81488285 -.00006833  00000-0 -44040-3 0  9992","EPOCH":"2022-12-28T19:33:25.878240","PERIAPSIS":"546.794","GP_ID":"221693384","SITE":"AFETR","COUNTRY_CODE":"US","EPHEMERIS_TYPE":"0","CENTER_NAME":"EARTH","MEAN_ANOMALY":"273.5304","APOAPSIS":"547.701","BSTAR":"-0.00044040000000","CLASSIFICATION_TYPE":"U","ARG_OF_PERICENTER":"86.5760","RA_OF_ASC_NODE":"254.9254","MEAN_MOTION_DOT":"-0.00006833","TIME_SYSTEM":"UTC","TLE_LINE2":"2 47359  53.0567 254.9254 0000655  86.5760 273.5304 15.06388978107237"},{"GP_ID":"221694635","TLE_LINE1":"1 47360U 21005M   22362.75500352  .00000085  00000-0  24642-4 0  9995","EPOCH":"2022-12-28T18:07:12.304128","PERIAPSIS":"546.170","MEAN_ANOMALY":"276.6907","APOAPSIS":"548.308","SITE":"AFETR","COUNTRY_CODE":"US","EPHEMERIS_TYPE":"0","CENTER_NAME":"EARTH","RA_OF_ASC_NODE":"225.1997","BSTAR":"0.00002464200000","CLASSIFICATION_TYPE":"U","ARG_OF_PERICENTER":"83.4257","TIME_SYSTEM":"UTC","TLE_LINE2":"2 47360  53.0536 225.1997 0001544  83.4257 276.6907 15.06391692107650","MEAN_MOTION_DOT":"0.00000085","ECCENTRICITY":"0.00015440","LAUNCH_DATE":"2021-01-20","SEMIMAJOR_AXIS":"6925.374","FILE":"3725038","REF_FRAME":"TEME","OBJECT_ID":"2021-005M","ELEMENT_SET_NO":"999","INCLINATION":"53.0536","MEAN_MOTION_DDOT":"0.0000000000000","MEAN_MOTION":"15.06391692","MEAN_ELEMENT_THEORY":"SGP4","DECAY_DATE":null,"REV_AT_EPOCH":"10765","OBJECT_NAME":"STARLINK-2070","OBJECT_TYPE":"PAYLOAD","RCS_SIZE":"LARGE","NORAD_CAT_ID":"47360","PERIOD":"95.593"},{"TIME_SYSTEM":"UTC","TLE_LINE2":"2 47361  53.0508 230.2451 0001292 102.4056 257.7078 15.06392856107574","MEAN_MOTION_DOT":"-0.00000721","RA_OF_ASC_NODE":"230.2451","BSTAR":"-0.00002954400000","CLASSIFICATION_TYPE":"U","ARG_OF_PERICENTER":"102.4056","MEAN_ANOMALY":"257.7078","APOAPSIS":"548.130","SITE":"AFETR","COUNTRY_CODE":"US","EPHEMERIS_TYPE":"0","CENTER_NAME":"EARTH","GP_ID":"221694877","TLE_LINE1":"1 47361U 21005N   22362.74531704 -.00000721  00000-0 -29544-4 0  9995","EPOCH":"2022-12-28T17:53:15.392256","PERIAPSIS":"546.341","NORAD_CAT_ID":"47361","PERIOD":"95.593","OBJECT_NAME":"STARLINK-2071","OBJECT_TYPE":"PAYLOAD","RCS_SIZE":"LARGE","MEAN_MOTION_DDOT":"0.0000000000000","INCLINATION":"53.0508","MEAN_MOTION":"15.06392856","MEAN_ELEMENT_THEORY":"SGP4","DECAY_DATE":null,"REV_AT_EPOCH":"10757","ECCENTRICITY":"0.00012920","LAUNCH_DATE":"2021-01-20","SEMIMAJOR_AXIS":"6925.370","FILE":"3725038","REF_FRAME":"TEME","OBJECT_ID":"2021-005N","ELEMENT_SET_NO":"999"},{"INCLINATION":"53.0535","MEAN_MOTION_DDOT":"0.0000000000000","REV_AT_EPOCH":"10704","DECAY_DATE":null,"MEAN_ELEMENT_THEORY":"SGP4","MEAN_MOTION":"15.06415916","REF_FRAME":"TEME","FILE":"3725038","LAUNCH_DATE":"2021-01-20","SEMIMAJOR_AXIS":"6925.300","ECCENTRICITY":"0.00015180","ELEMENT_SET_NO":"999","OBJECT_ID":"2021-005P","NORAD_CAT_ID":"47362","PERIOD":"95.591","OBJECT_TYPE":"PAYLOAD","OBJECT_NAME":"STARLINK-2076","RCS_SIZE":"LARGE","APOAPSIS":"548.216","MEAN_ANOMALY":"286.4731","CENTER_NAME":"EARTH","EPHEMERIS_TYPE":"0","SITE":"AFETR","COUNTRY_CODE":"US","GP_ID":"221693136","PERIAPSIS":"546.114","EPOCH":"2022-12-27T23:51:47.376576","TLE_LINE1":"1 47362U 21005P   22361.99429834  .00004842  00000-0  34358-3 0  9996","TLE_LINE2":"2 47362  53.0535 263.6198 0001518  73.6425 286.4731 15.06415916107043","TIME_SYSTEM":"UTC","MEAN_MOTION_DOT":"0.00004842","RA_OF_ASC_NODE":"263.6198","ARG_OF_PERICENTER":"73.6425","CLASSIFICATION_TYPE":"U","BSTAR":"0.00034358000000"},{"ELEMENT_SET_NO":"999","OBJECT_ID":"2021-005Q","REF_FRAME":"TEME","FILE":"3725038","SEMIMAJOR_AXIS":"6925.288","LAUNCH_DATE":"2021-01-20","ECCENTRICITY":"0.00013740","REV_AT_EPOCH":"10704","DECAY_DATE":null,"MEAN_ELEMENT_THEORY":"SGP4","MEAN_MOTION":"15.06419652","INCLINATION":"53.0556","MEAN_MOTION_DDOT":"0.0000000000000","RCS_SIZE":"LARGE","OBJECT_TYPE":"PAYLOAD","OBJECT_NAME":"STARLINK-2077","PERIOD":"95.591","NORAD_CAT_ID":"47363","PERIAPSIS":"546.202","EPOCH":"2022-12-27T23:57:05.248224","TLE_LINE1":"1 47363U 21005Q   22361.99797741  .00003049  00000-0  22339-3 0  9996","GP_ID":"221693884","CENTER_NAME":"EARTH","EPHEMERIS_TYPE":"0","SITE":"AFETR","COUNTRY_CODE":"US","APOAPSIS":"548.105","MEAN_ANOMALY":"269.3656","ARG_OF_PERICENTER":"90.7490","CLASSIFICATION_TYPE":"U","BSTAR":"0.00022339000000","RA_OF_ASC_NODE":"263.5839","MEAN_MOTION_DOT":"0.00003049","TLE_LINE2":"2 47363  53.0556 263.5839 0001374  90.7490 269.3656 15.06419652107047","TIME_SYSTEM":"UTC"},{"DECAY_DATE":null,"MEAN_ELEMENT_THEORY":"SGP4","REV_AT_EPOCH":"10716","MEAN_MOTION":"15.06395643","MEAN_MOTION_DDOT":"0.0000000000000","INCLINATION":"53.0526","ELEMENT_SET_NO":"999","OBJECT_ID":"2021-005T","FILE":"3725038","REF_FRAME":"TEME","ECCENTRICITY":"0.00017270","SEMIMAJOR_AXIS":"6925.362","LAUNCH_DATE":"2021-01-20","PERIOD":"95.592","NORAD_CAT_ID":"47366","RCS_SIZE":"LARGE","OBJECT_TYPE":"PAYLOAD","OBJECT_NAME":"STARLINK-2081","CENTER_NAME":"EARTH","COUNTRY_CODE":"US","SITE":"AFETR","EPHEMERIS_TYPE":"0","MEAN_ANOMALY":"279.3709","APOAPSIS":"548.423","PERIAPSIS":"546.031","EPOCH":"2022-12-28T19:40:44.021280","TLE_LINE1":"1 47366U 21005T   22362.81995395 -.00002160  00000-0 -12619-3 0  9991","GP_ID":"221694136","MEAN_MOTION_DOT":"-0.00002160","TIME_SYSTEM":"UTC","TLE_LINE2":"2 47366  53.0526 259.9125 0001727  80.7476 279.3709 15.06395643107165","ARG_OF_PERICENTER":"80.7476","BSTAR":"-0.00012619000000","CLASSIFICATION_TYPE":"U","RA_OF_ASC_NODE":"259.9125"},{"MEAN_ELEMENT_THEORY":"SGP4","DECAY_DATE":null,"REV_AT_EPOCH":"10712","MEAN_MOTION":"15.06401479","INCLINATION":"53.0558","MEAN_MOTION_DDOT":"0.0000000000000","ELEMENT_SET_NO":"999","OBJECT_ID":"2021-005U","FILE":"3724925","REF_FRAME":"TEME","ECCENTRICITY":"0.00012690","SEMIMAJOR_AXIS":"6925.344","LAUNCH_DATE":"2021-01-20","PERIOD":"95.592","NORAD_CAT_ID":"47367","RCS_SIZE":"LARGE","OBJECT_TYPE":"PAYLOAD","OBJECT_NAME":"STARLINK-2082","CENTER_NAME":"EARTH","COUNTRY_CODE":"US","SITE":"AFETR","EPHEMERIS_TYPE":"0","MEAN_ANOMALY":"286.4350","APOAPSIS":"548.088","EPOCH":"2022-12-28T12:20:11.214816","PERIAPSIS":"546.330","TLE_LINE1":"1 47367U 21005U   22362.51401869 -.00000457  00000-0 -11818-4 0  9995","GP_ID":"221669720","MEAN_MOTION_DOT":"-0.00000457","TIME_SYSTEM":"UTC","TLE_LINE2":"2 47367  53.0558 261.2708 0001269  73.6779 286.4350 15.06401479107124","ARG_OF_PERICENTER":"73.6779","CLASSIFICATION_TYPE":"U","BSTAR":"-0.00001181800000","RA_OF_ASC_NODE":"261.2708"},{"RCS_SIZE":"LARGE","OBJECT_NAME":"STARLINK-2084","OBJECT_TYPE":"PAYLOAD","PERIOD":"95.591","NORAD_CAT_ID":"47368","OBJECT_ID":"2021-005V","ELEMENT_SET_NO":"999","LAUNCH_DATE":"2021-01-20","SEMIMAJOR_AXIS":"6925.304","ECCENTRICITY":"0.00018130","REF_FRAME":"TEME","FILE":"3725038","MEAN_MOTION":"15.06414688","REV_AT_EPOCH":"10717","MEAN_ELEMENT_THEORY":"SGP4","DECAY_DATE":null,"MEAN_MOTION_DDOT":"0.0000000000000","INCLINATION":"53.0559","CLASSIFICATION_TYPE":"U","BSTAR":"-0.00028813000000","ARG_OF_PERICENTER":"74.6536","RA_OF_ASC_NODE":"259.8238","MEAN_MOTION_DOT":"-0.00004572","TLE_LINE2":"2 47368  53.0559 259.8238 0001813  74.6536 285.4654 15.06414688107171","TIME_SYSTEM":"UTC","TLE_LINE1":"1 47368U 21005V   22362.83838873 -.00004572  00000-0 -28813-3 0  9994","EPOCH":"2022-12-28T20:07:16.786272","PERIAPSIS":"545.913","GP_ID":"221693636","EPHEMERIS_TYPE":"0","COUNTRY_CODE":"US","SITE":"AFETR","CENTER_NAME":"EARTH","APOAPSIS":"548.424","MEAN_ANOMALY":"285.4654"},{"OBJECT_ID":"2021-005W","ELEMENT_SET_NO":"999","ECCENTRICITY":"0.00014610","LAUNCH_DATE":"2021-01-20","SEMIMAJOR_AXIS":"6925.304","FILE":"3724986","REF_FRAME":"TEME","MEAN_MOTION":"15.06414529","DECAY_DATE":null,"MEAN_ELEMENT_THEORY":"SGP4","REV_AT_EPOCH":"10830","MEAN_MOTION_DDOT":"0.0000000000000","INCLINATION":"53.0542","RCS_SIZE":"LARGE","OBJECT_NAME":"STARLINK-2085","OBJECT_TYPE":"PAYLOAD","PERIOD":"95.591","NORAD_CAT_ID":"47369","TLE_LINE1":"1 47369U 21005W   22362.11314306  .00002025  00000-0  15471-3 0  9991","PERIAPSIS":"546.157","EPOCH":"2022-12-28T02:42:55.560384","GP_ID":"221671388","COUNTRY_CODE":"US","SITE":"AFETR","EPHEMERIS_TYPE":"0","CENTER_NAME":"EARTH","MEAN_ANOMALY":"332.0941","APOAPSIS":"548.181","CLASSIFICATION_TYPE":"U","BSTAR":"0.00015471000000","ARG_OF_PERICENTER":"28.0126","RA_OF_ASC_NODE":"243.0549","MEAN_MOTION_DOT":"0.00002025","TIME_SYSTEM":"UTC","TLE_LINE2":"2 47369  53.0542 243.0549 0001461  28.0126 332.0941 15.06414529108309"}];
